"store_id","name","address","city","country","postcode","region","email","phone","url_key","image","latitude","longitude","status","updated_at","created_at","station","description","intro","details_image","distance","external_link","opening_hours","special_opening_hours","category","products"
"1","Mobile Van Tyre Fitment - Abu Dhabi","Mushrif Mall","Abu Dhabi","AE","","Abu Dhabi","customercare@tyresvision.com","","","","24.43379850000001","54.4123045","1","2021-06-23 15:06:51","2021-05-29 07:22:36","","","","","","https://goo.gl/maps/9MEkYmZexm2m4G5m6","0=09:00->19:00|1=09:00->19:00|2=09:00->19:00|3=09:00->19:00|4=09:00->19:00|6=09:00->19:00|","","","1","1","150","1"
"1","Mobile Van Tyre Fitment - Dubai ","","Dubai","AE","","","customercare@tyresvision.com","","","","25.17067302898345","55.24142073069103","1","2021-06-23 14:59:35","2021-05-29 07:22:36","","","","","","https://goo.gl/maps/PL395iou3mVxNeGz5","0=09:00->19:00|1=09:00->19:00|2=09:00->19:00|3=09:00->19:00|4=09:00->19:00|6=09:00->19:00|","","","1","1","150","1"
"1","Al Karawan Tyres","Beside Toyota Al Futtaim Showroom, Sheikh Zayed Rd","Dubai","AE","","","customercare@tyresvision.com","","","","25.17609","55.247678","1","2021-06-21 08:56:50","2021-05-29 07:22:36","","","","","","https://goo.gl/maps/7sRTV5AKW1FyDy4f8","0=09:00->19:00|1=09:00->19:00|2=09:00->19:00|3=09:00->19:00|4=09:00->19:00|6=09:00->19:00|","","","1","0","","1"
"1","Al Mailem Tyres","Masjid - Plot: 56/ 1+2, Industrial Area 3, Near Yellow Cat Opposite Marquas","Dubai","AE","","","customercare@tyresvision.com","","","","25.297667","55.409653","1","2021-05-29 07:22:36","2021-05-29 07:22:36","","","","","","https://g.page/AlmailemTiresSharjah?share","0=09:00->19:00|1=09:00->19:00|2=09:00->19:00|3=09:00->19:00|4=09:00->19:00|6=09:00->19:00|","","","1","0","","1"
"1","Al Mailem Tyres - SHJ","Near Curewell General Trading, Ind Area- 11","Dubai","AE","","","customercare@tyresvision.com","","","","25.296722","55.431056","1","2021-05-29 07:22:36","2021-05-29 07:22:36","","","","","","https://www.google.com/maps/@25.296722,55.431056,5669m/data=!3m1!1e3?hl=en","0=09:00->19:00|1=09:00->19:00|2=09:00->19:00|3=09:00->19:00|4=09:00->19:00|6=09:00->19:00|","","","1","0","","1"
"1","Chelsea Tyres","Al Barsha Third - Hessa St","Dubai","AE","","","customercare@tyresvision.com","","","","25.083236","55.201646","1","2021-05-29 07:22:36","2021-05-29 07:22:36","","","","","","https://goo.gl/maps/3Q7rYZF4SEdga7XFA","0=09:00->19:00|1=09:00->19:00|2=09:00->19:00|3=09:00->19:00|4=09:00->19:00|6=09:00->19:00|","","","1","0","","1"
"1","Fast Fit - Dorra","Adnoc Service Station, Al Ittihad Road - E11","Dubai","AE","","","customercare@tyresvision.com","","","","25.303269","55.370876","1","2021-05-29 07:22:36","2021-05-29 07:22:36","","","","","","https://goo.gl/maps/JxSTYFytenLL3VyY6","0=09:00->19:00|1=09:00->19:00|2=09:00->19:00|3=09:00->19:00|4=09:00->19:00|6=09:00->19:00|","","","1","0","","1"
"1","Fast Fit - Ramool","Located In 10 13Th St","Dubai","AE","","","customercare@tyresvision.com","","","","25.2375793","55.3593006","1","2021-05-29 07:22:36","2021-05-29 07:22:36","","","","","","https://goo.gl/maps/nCxwkkk3h9Xt7NjWA","0=09:00->19:00|1=09:00->19:00|2=09:00->19:00|3=09:00->19:00|4=09:00->19:00|6=09:00->19:00|","","","1","0","","1"
"1","Fast Lane Tyres","Baghdad Street,
Al Qusais Industrial Area 2
","Dubai","AE","","","customercare@tyresvision.com","","","","25.276284","55.387686","1","2021-05-29 07:22:36","2021-05-29 07:22:36","","","","","","https://g.page/fastlanetyres?share","0=09:00->19:00|1=09:00->19:00|2=09:00->19:00|3=09:00->19:00|4=09:00->19:00|6=09:00->19:00|","","","1","0","","1"
"1","Goodyear Auto Care","4Th St , Behind Peugeot Showroom","Dubai","AE","","","customercare@tyresvision.com","","","","25.134958","55.217291","1","2021-06-08 05:36:25","2021-05-29 07:22:36","","","","","","https://goo.gl/maps/b9wotKKw543F5SJGA","0=09:00->19:00|1=09:00->19:00|2=09:00->19:00|3=09:00->19:00|4=09:00->19:00|6=09:00->19:00|","","","1","0","","1"
"1","Goodyear Auto Care","Airport Road, Cargo Village, Behind Garhoud Leather","Dubai","AE","","","customercare@tyresvision.com","","","","25.252507","55.344878","1","2021-05-29 07:22:36","2021-05-29 07:22:36","","","","","","https://goo.gl/maps/xeck4KucstYexWUu9","0=09:00->19:00|1=09:00->19:00|2=09:00->19:00|3=09:00->19:00|4=09:00->19:00|6=09:00->19:00|","","","1","0","","1"
"1","Gulf Coasts Co.","Al Nahda Street, Opposite Day To Day,","Dubai","AE","","","customercare@tyresvision.com","","","","25.303871","55.386757","1","2021-05-29 07:22:36","2021-05-29 07:22:36","","","","","","https://goo.gl/maps/saiRvigxoaVj3WGdA","0=09:00->19:00|1=09:00->19:00|2=09:00->19:00|3=09:00->19:00|4=09:00->19:00|6=09:00->19:00|","","","1","0","","1"
"1","Hankook Masters","Behind Home Center Warehouse","Dubai","AE","","","customercare@tyresvision.com","","","","25.127132","55.225389","1","2021-05-29 07:22:36","2021-05-29 07:22:36","","","","","","https://goo.gl/maps/DgEYouEHSNhbqy8Q8","0=09:00->19:00|1=09:00->19:00|2=09:00->19:00|3=09:00->19:00|4=09:00->19:00|6=09:00->19:00|","","","1","0","","1"
"1","Lezof Tyres","Near Belhasa Driving School,","Dubai","AE","","","customercare@tyresvision.com","","","","25.18881","55.379972","1","2021-05-29 07:22:36","2021-05-29 07:22:36","","","","","","https://g.page/lezofauto?share","0=09:00->19:00|1=09:00->19:00|2=09:00->19:00|3=09:00->19:00|4=09:00->19:00|6=09:00->19:00|","","","1","0","","1"
"1","Max Garage","29Th St, Al Quoz 4","Dubai","AE","","","customercare@tyresvision.com","","","","25.111761","55.224103","1","2021-05-29 07:22:36","2021-05-29 07:22:36","","","","","","https://g.page/MaxGarage-Main?share","0=09:00->19:00|1=09:00->19:00|2=09:00->19:00|3=09:00->19:00|4=09:00->19:00|6=09:00->19:00|","","","1","0","","1"
"1","Mega Fix Tyres","Al Ghusais Industrial Area 3 , Opposite Khayam Bakery","Dubai","AE","","","customercare@tyresvision.com","","","","25.297739","55.3912","1","2021-05-29 07:22:36","2021-05-29 07:22:36","","","","","","https://goo.gl/maps/nXBwKuzL6Z5sNqud7","0=09:00->19:00|1=09:00->19:00|2=09:00->19:00|3=09:00->19:00|4=09:00->19:00|6=09:00->19:00|","","","1","0","","1"
"1","New Bharath PitStop","Baghdad Street","Dubai","AE","","","customercare@tyresvision.com","","","","25.277225","55.386123","1","2021-05-29 07:22:36","2021-05-29 07:22:36","","","","","","https://g.page/dubaityres?share","0=09:00->19:00|1=09:00->19:00|2=09:00->19:00|3=09:00->19:00|4=09:00->19:00|6=09:00->19:00|","","","1","0","","1"
"1","Orange Auto","Opposite Old National Taxi Office,","Dubai","AE","","","customercare@tyresvision.com","","","","25.138488","55.238795","1","2021-05-29 07:22:36","2021-05-29 07:22:36","","","","","","https://g.page/orangeauto-dubai?share","0=09:00->19:00|1=09:00->19:00|2=09:00->19:00|3=09:00->19:00|4=09:00->19:00|6=09:00->19:00|","","","1","0","","1"
"1","Orange Auto NAD","Round About - 9Th St -","Dubai","AE","","","customercare@tyresvision.com","","","","25.187689","55.381351","1","2021-05-29 07:22:36","2021-05-29 07:22:36","","","","","","https://goo.gl/maps/NG51R7e9JLQHGH756","0=09:00->19:00|1=09:00->19:00|2=09:00->19:00|3=09:00->19:00|4=09:00->19:00|6=09:00->19:00|","","","1","0","","1"
"1","Popular Tyres","41 14B  Street, Al Quoz 4,
Next To Al Ahli Driving School.","Dubai","AE","","","customercare@tyresvision.com","","","","25.115979","55.229711","1","2021-05-29 07:22:36","2021-05-29 07:22:36","","","","","","https://goo.gl/maps/uE9DjPvzRVcrQ9UD6","0=09:00->19:00|1=09:00->19:00|2=09:00->19:00|3=09:00->19:00|4=09:00->19:00|6=09:00->19:00|","","","1","0","","1"
"1","Premium Tyre","10Th Street, Al Qouz Industrial 4","Dubai","AE","","","akdxbsales@gmail.com","042286001","","","25.112222","55.223772","1","2021-06-13 06:41:59","2021-05-29 07:22:36","","","","","","https://goo.gl/maps/UjtaCoNoWC4L5CsX6","0=09:00->19:00|1=09:00->19:00|2=09:00->19:00|3=09:00->19:00|4=09:00->19:00|6=09:00->19:00|","","","1","0","","1"
"1","Saeedi Pro","Al Quoz Industrial Area 3, Near Time Square","Dubai","AE","","","customercare@tyresvision.com","","","","25.131562","55.217423","1","2021-05-29 07:22:36","2021-05-29 07:22:36","","","","","","https://g.page/saeedi-pro-al-quoz?share","0=09:00->19:00|1=09:00->19:00|2=09:00->19:00|3=09:00->19:00|4=09:00->19:00|6=09:00->19:00|","","","1","0","","1"
"1","Saeedi Pro","Al Qusais Industrial Area 2, Near Zulekha Hospital","Dubai","AE","","","customercare@tyresvision.com","","","","25.291669","55.387108","1","2021-05-29 07:22:36","2021-05-29 07:22:36","","","","","","https://g.page/saeedi-pro-qusais-ind--area?share","0=09:00->19:00|1=09:00->19:00|2=09:00->19:00|3=09:00->19:00|4=09:00->19:00|6=09:00->19:00|","","","1","0","","1"
"1","Saeedi Pro","Al Twar, Damascus Street, Emarat Petrol Station,Qusais","Dubai","AE","","","customercare@tyresvision.com","","","","25.264655","55.374876","1","2021-05-29 07:22:36","2021-05-29 07:22:36","","","","","","https://g.page/saeedi-pro-qusais-emarat-pump?share","0=09:00->19:00|1=09:00->19:00|2=09:00->19:00|3=09:00->19:00|4=09:00->19:00|6=09:00->19:00|","","","1","0","","1"
"1","Saeedi Pro","Behind Al Khabayal Discount Center, Deira","Dubai","AE","","","customercare@tyresvision.com","","","","25.267224","55.333141","1","2021-05-29 07:22:36","2021-05-29 07:22:36","","","","","","https://goo.gl/maps/AaABLiyMmwZyGijTA","0=09:00->19:00|1=09:00->19:00|2=09:00->19:00|3=09:00->19:00|4=09:00->19:00|6=09:00->19:00|","","","1","0","","1"
"1","Saeedi Pro","Ras Al Khor Industrial Area 1,
Near To Nissan Service Centre","Dubai","AE","","","customercare@tyresvision.com","","","","25.181556","55.338583","1","2021-05-29 07:22:36","2021-05-29 07:22:36","","","","","","https://www.google.com/maps/@25.181556,55.338583,15z?hl=en-IN","0=09:00->19:00|1=09:00->19:00|2=09:00->19:00|3=09:00->19:00|4=09:00->19:00|6=09:00->19:00|","","","1","0","","1"
"1","Saeedi Pro","Umm Ramool, Rashidiya","Dubai","AE","","","customercare@tyresvision.com","","","","25.229242","55.354918","1","2021-05-29 07:22:36","2021-05-29 07:22:36","","","","","","https://g.page/saeedi-pro-rashidiya?share","0=09:00->19:00|1=09:00->19:00|2=09:00->19:00|3=09:00->19:00|4=09:00->19:00|6=09:00->19:00|","","","1","0","","1"
"1","Sand Dance Tyres","17 Street Marakech, Umm Ramool  , Near Easyfix Garage","Dubai","AE","","","customercare@tyresvision.com","","","","25.22341","55.374263","1","2021-05-29 07:22:36","2021-05-29 07:22:36","","","","","","https://g.page/easyfixautogarage?share","0=09:00->19:00|1=09:00->19:00|2=09:00->19:00|3=09:00->19:00|4=09:00->19:00|6=09:00->19:00|","","","1","0","","1"
"1","Sand Dance Tyres","47 22Nd St, Al Qouz 4, Near Yateem Group Office.","Dubai","AE","","","customercare@tyresvision.com","","","","25.114806","55.233361","1","2021-05-29 07:22:36","2021-05-29 07:22:36","","","","","","https://www.google.com/maps/@25.114806,55.233361,177m/data=!3m1!1e3?hl=en","0=09:00->19:00|1=09:00->19:00|2=09:00->19:00|3=09:00->19:00|4=09:00->19:00|6=09:00->19:00|","","","1","0","","1"
"1","Sand Dance Tyres","Adnoc Petrol Station, Near Agmc Showroom,","Sharjah","AE","","","customercare@tyresvision.com","","","","25.316807","55.426943","1","2021-06-07 12:02:15","2021-05-29 07:22:36","","","","","","https://goo.gl/maps/jn5w1Ma5eHVKtqee7","0=09:00->19:00|1=09:00->19:00|2=09:00->19:00|3=09:00->19:00|4=09:00->19:00|6=09:00->19:00|","","","1","0","","1"
"1","Sand Dance Tyres","West Opposite Civil Defence - Latifa Bint Hamdan St","Dubai","AE","","","customercare@tyresvision.com","","","","25.156618","55.234611","1","2021-05-29 07:22:36","2021-05-29 07:22:36","","","","","","https://goo.gl/maps/BkDyJxGCdLRfCEMy5","0=09:00->19:00|1=09:00->19:00|2=09:00->19:00|3=09:00->19:00|4=09:00->19:00|6=09:00->19:00|","","","1","0","","1"
"1","Star Tyre Services","Near Amber Garden Furniture, D63 Road","Dubai","AE","","","customercare@tyresvision.com","","","","25.114633","55.215692","1","2021-05-29 07:22:36","2021-05-29 07:22:36","","","","","","https://g.page/starauto21?share","0=09:00->19:00|1=09:00->19:00|2=09:00->19:00|3=09:00->19:00|4=09:00->19:00|6=09:00->19:00|","","","1","0","","1"
"1","SunGate Tyres","Airport Rd","Dubai","AE","","","customercare@tyresvision.com","","","","25.2311493","55.3554711","1","2021-05-29 07:22:36","2021-05-29 07:22:36","","","","","","https://g.page/tire-ae-um-ramool?share","0=09:00->19:00|1=09:00->19:00|2=09:00->19:00|3=09:00->19:00|4=09:00->19:00|6=09:00->19:00|","","","1","0","","1"
"1","SunGate Tyres","Umm Suqeim St , Close To Zaman Collection, After  Ambar Garden Furniture","Dubai","AE","","","customercare@tyresvision.com","","","","25.11409","55.216065","1","2021-05-29 07:22:36","2021-05-29 07:22:36","","","","","","https://g.page/tire-ae?share","0=09:00->19:00|1=09:00->19:00|2=09:00->19:00|3=09:00->19:00|4=09:00->19:00|6=09:00->19:00|","","","1","0","","1"
"1","Technical Resources","Next - Umm Suqeim St - Al Quoz Industrial Area 4","Dubai","AE","","","customercare@tyresvision.com","","","","25.106989","55.22669","1","2021-05-29 07:22:36","2021-05-29 07:22:36","","","","","","https://goo.gl/maps/VuAMZfkAkeQh6LC67","0=09:00->19:00|1=09:00->19:00|2=09:00->19:00|3=09:00->19:00|4=09:00->19:00|6=09:00->19:00|","","","1","0","","1"
"1","TyrePlus","Al Barsha  Mall, Basement 2 ,23Rd St. Al Barsha 2","Dubai","AE","","","customercare@tyresvision.com","","","","25.098777","55.204542","1","2021-05-29 07:22:36","2021-05-29 07:22:36","","","","","","https://goo.gl/maps/yN9A9YH223NRn4fj9","0=09:00->19:00|1=09:00->19:00|2=09:00->19:00|3=09:00->19:00|4=09:00->19:00|6=09:00->19:00|","","","1","0","","1"
"1","TyrePlus-Safeer","Al Manama St, After Emirates Auction Towards Abu Kadra Roundabout,Ras Al Khor","Dubai","AE","","","customercare@tyresvision.com","","","","25.170007","55.342772","1","2021-05-29 07:22:36","2021-05-29 07:22:36","","","","","","https://goo.gl/maps/HoEb7oXosGFJMF5L6","0=09:00->19:00|1=09:00->19:00|2=09:00->19:00|3=09:00->19:00|4=09:00->19:00|6=09:00->19:00|","","","1","0","","1"
"1","TyrePlus-Safeer","Behind Times Square Mall, Al Quoz","Dubai","AE","","","customercare@tyresvision.com","","","","25.138549","55.220808","1","2021-05-29 07:22:36","2021-05-29 07:22:36","","","","","","https://goo.gl/maps/SF9HBEy2juAZp4Lt6","0=09:00->19:00|1=09:00->19:00|2=09:00->19:00|3=09:00->19:00|4=09:00->19:00|6=09:00->19:00|","","","1","0","","1"
"1","Tyres Station","20.28C Street - Umm Ramool - Rashidiyah","Dubai","AE","","","customercare@tyresvision.com","","","","25.230052","55.372639","1","2021-05-29 07:22:36","2021-05-29 07:22:36","","","","","","https://goo.gl/maps/aHR3VdgnHQNqCQbm9","0=09:00->19:00|1=09:00->19:00|2=09:00->19:00|3=09:00->19:00|4=09:00->19:00|6=09:00->19:00|","","","1","0","","1"
"1","Yokohama TSC","Eppco Petrol Station Before Airport Tunnel ,Near Dxb Civil Defence","Dubai","AE","","","customercare@tyresvision.com","","","","25.223832","55.377737","1","2021-05-29 07:22:37","2021-05-29 07:22:37","","","","","","https://goo.gl/maps/ANS9MjjNwCwomtbh8","0=09:00->19:00|1=09:00->19:00|2=09:00->19:00|3=09:00->19:00|4=09:00->19:00|6=09:00->19:00|","","","1","0","","1"
"1","Yokohama TSC","Ind # 6 , Opposite To Toyota Showroom , Maleeha Road","Dubai","AE","","","customercare@tyresvision.com","","","","25.317037","55.426402","1","2021-05-29 07:22:37","2021-05-29 07:22:37","","","","","","https://goo.gl/maps/Y9dzgHprj14XouXo9","0=09:00->19:00|1=09:00->19:00|2=09:00->19:00|3=09:00->19:00|4=09:00->19:00|6=09:00->19:00|","","","1","0","","1"
"1","Yokohama TSC","Juma Al Majid Est Building,25Th Street, Near Abu Bakersidik Metro Station","Dubai","AE","","","customercare@tyresvision.com","","","","25.2706851","55.337382","1","2021-05-29 07:22:37","2021-05-29 07:22:37","","","","","","https://goo.gl/maps/bMq55zFmkrHQETGcA","0=09:00->19:00|1=09:00->19:00|2=09:00->19:00|3=09:00->19:00|4=09:00->19:00|6=09:00->19:00|","","","1","0","","1"
"1","Zdegree","Behind Emirates Glass, Near Umm Suqeim St","Dubai","AE","","","customercare@tyresvision.com","","","","25.116248","55.223562","1","2021-05-29 07:22:37","2021-05-29 07:22:37","","","","","","https://g.page/zDegreealquoz?share","0=09:00->19:00|1=09:00->19:00|2=09:00->19:00|3=09:00->19:00|4=09:00->19:00|6=09:00->19:00|","","","1","0","","1"
"1","Zdegree Citywalk","Enoc Petrol Station 1019, Opposite City Walk, Al Safa Road, ","Dubai","AE","","","customercare@tyresvision.com","","","","25.210991","55.259631","1","2021-06-04 06:14:11","2021-05-29 07:22:37","","","","","","https://g.page/zdegree-city-walk?share","0=09:00->19:00|1=09:00->19:00|2=09:00->19:00|3=09:00->19:00|4=09:00->19:00|6=09:00->19:00|","","","1","0",""
"1","Sand Dance Tyres","47 22nd St - Al Qouz Ind. Area 4","Dubai","AE","","","fuad@sdtyres.com","+971 50 6751624","","","25.1150758","55.2326094","1","2021-06-07 13:06:24","2021-06-05 04:32:55","","","","","","https://goo.gl/maps/pQnhzZL8LRDQwaSM7","0=09:00->18:45|1=08:45->18:45|2=09:00->18:45|3=09:00->18:45|4=09:00->18:45|5=09:00->19:00|6=09:00->18:45","","","1","0",""
"1","Sand Dance Tyres","Al Qouz Ind. Area 3, Dubai","Dubai","AE","","","ahmed@sdtyres.com","04 344 9001","","","25.1566227","55.2324223","1","2021-06-07 13:06:01","2021-06-05 04:36:01","","","","","","https://goo.gl/maps/qU7hj126ugmC9NNN6","0=09:00->18:45|1=09:00->18:45|2=09:00->18:45|3=09:00->18:45|4=09:00->18:45|5=09:00->18:45|6=09:00->18:45","","","1","0",""
"1","Sand Dance Tyres","Warehouse 1, 17th Street, Umm Ramool, Behind Rta, Near Dubai Airport","Dubai","AE","","","ramool@sdtyres.com","+971 54 4560454","","","25.2231528","55.3722734","1","2021-06-07 13:05:45","2021-06-05 04:40:16","","","","","","https://goo.gl/maps/hHj3iCHYBoGWy7RR8","0=09:00->18:45|1=09:00->18:45|2=09:00->18:45|3=09:00->18:45|4=09:00->18:45|5=09:00->18:45|6=09:00->18:45","","","1","0",""
"1","Sand Dance Tyres","3rd Ind. St - Industrial Area 6","Sharjah","AE","","","customercare@tyresvision.com","+971 56 5244412","","","25.316807","55.3569052","1","2021-06-07 13:05:33","2021-06-05 04:46:41","","","","","","https://goo.gl/maps/XqkW7R24Mz13qaXEA","0=09:00->18:45|1=09:00->18:45|2=09:00->18:45|3=09:00->18:45|4=09:00->18:45|5=09:00->18:45|6=09:00->18:45","","","1","0",""
"1","Sand Dance Tyres","Sheikh Zayed St - Ajman Sheik Maktoum Bin Rashid Street,","Ajman","AE","","","ajman@sdtyres.com","+971 50 211 9500","","","25.3106586","55.3663917","1","2021-06-07 13:05:22","2021-06-05 04:50:51","","","","","","https://goo.gl/maps/tiCv3fdAYLPXXpJ37","0=09:00->19:00|1=09:00->19:00|2=09:00->19:00|3=09:00->19:00|4=09:00->19:00|5=09:00->19:00|6=09:00->19:00","","","1","0",""
"1","Sand Dance Tyres","Rak Mall Branch In outside parking of Rak Mall","RAS AL Khaima","AE","","","rakmall@sdtyres.com","07 2211152","","","25.7719496","55.9572905","1","2021-06-07 13:05:11","2021-06-05 04:53:09","","","","","","https://goo.gl/maps/fbZcjpJo3BBc5xVA8","0=09:00->18:45|1=09:00->18:45|2=09:00->18:45|3=09:00->18:45|4=09:00->18:45|5=09:00->18:45|6=09:00->18:45","","","1","0",""
"1","Online Tyres","NEW Sanaiya, Opposie Al Haraj Car","Al Ain","AE","","","uaeonlinetyre@gmail.com","03 780 3231","","","24.1759262","55.7692375","1","2021-06-07 13:04:37","2021-06-05 04:55:37","","","","","","https://goo.gl/maps/W2TAP2NH3c6p3zhy8","0=09:00->18:45|1=09:00->18:45|2=09:00->18:45|3=09:00->18:45|4=09:00->18:45|5=09:00->18:45|6=09:00->18:30","","","1","0",""
"1","Barceloni Tyres & Wheel TR","Rabdan ( Umm al nar) next to Abu Dhabi Motors","Abu Dhabi","AE","","","info@barcelonityre.ae","+971 56 421 7171","","","24.4156766","54.4979084","1","2021-06-07 13:07:45","2021-06-05 04:57:52","","","","","","https://goo.gl/maps/nBXmwuJwqP79apBf7","0=09:00->19:00|1=09:00->19:00|2=09:00->19:00|3=09:00->19:00|4=09:00->19:00|5=09:00->19:00|6=09:00->18:45","","","1","0",""
"1","Safeer Tyres","Al Jarf , opposite of China mall , Sheikh Ammar Bin Humaid Street - Ajman, Jurf, ","Ajman","AE","","","info@safeertyres.com","+97167484848 ","","","25.430802","55.521931","1","2021-06-07 12:39:50","2021-06-07 12:39:50","","","","","","https://goo.gl/maps/pV2kc2yqidVSzt5j9","0=08:30->22:30|1=08:30->22:30|2=08:30->22:30|3=08:30->22:30|4=08:30->22:30|5=16:00->22:30|6=08:15->22:30","","","1","0",""
"1","Ajmal Mukhtar Garage","","Dubai","AE","","","customercare@tyresvision.com","","","","25.1789088","55.3558706","1","2021-06-23 12:57:48","2021-06-08 09:31:53","","","","","","https://goo.gl/maps/W3M2fbzf6EoFg3JX7","0=09:00->18:15|1=09:00->18:15|2=09:00->18:15|3=09:00->18:15|4=09:00->18:15|6=09:00->18:15|","","","1","0",""
"1","Al Fatah Tyres","100 Meter Before Mercedes show room, Same Service Road - 17th Street, Mussafah","Abu Dhabi","AE","","","customercare@tyresvision.com","","","","24.36531","54.516751","1","2021-06-08 09:59:34","2021-06-08 09:59:34","","","","","","https://g.page/Alfatahtyres?share","0=09:00->19:00|1=09:00->19:00|2=09:00->19:00|3=09:00->19:00|4=09:00->19:00|6=09:00->19:00|","","","1","0",""
"1","Al Masaood","Madinat Zayed, Madinat Zayed","Abu Dhabi","AE","","","customercare@tyresvision.com","","","","24.4838131","54.3664858","1","2021-06-08 10:18:52","2021-06-08 10:18:52","","","","","","https://goo.gl/maps/y4wTZVymk46e7Y1W6","0=09:00->19:00|1=09:00->19:00|2=09:00->19:00|3=09:00->19:00|4=09:00->19:00|6=09:00->19:00|","","","1","0",""
"1","Al Masaood","Mussafah Branch , Mussafah","Abu Dhabi","AE","","","customercare@tyresvision.com","","","","24.372412","54.499887","1","2021-06-08 10:24:37","2021-06-08 10:24:37","","","","","","https://goo.gl/maps/AbxoJ7W6GAQHhUnB6","0=09:00->19:00|1=09:00->19:00|2=09:00->19:00|3=09:00->19:00|4=09:00->19:00|6=09:00->19:00|","","","1","0",""
"1","Al Masaood","Mussafah Complex , Mussafah","Abu Dhabi","AE","","","customercare@tyresvision.com","","","","24.360865","54.499076","1","2021-06-08 10:27:54","2021-06-08 10:27:54","","","","","","https://goo.gl/maps/ndviDNUs1FkVnJFk8","0=09:00->19:00|1=09:00->19:00|2=09:00->19:00|3=09:00->19:00|4=09:00->19:00|6=09:00->19:00|","","","1","0",""
"1","Arabian Pro Tyres","Opposite City Center, Al Safia","Dubai","AE","","","customercare@tyresvision.com","","","","25.404214","55.478362","1","2021-06-08 10:32:07","2021-06-08 10:32:07","","","","","","https://g.page/chin-chin-ajman?share","0=09:00->19:00|1=09:00->19:00|2=09:00->19:00|3=09:00->19:00|4=09:00->19:00|6=09:00->19:00|","","","1","0",""
"1","Auto Body Center","Shk Mohd.Bin Zayed Road, Tasjeel","Sharjah","AE","","","customercare@tyresvision.com","","","","25.3413792","55.4722216","1","2021-06-08 10:37:22","2021-06-08 10:37:22","","","","","","https://g.page/AutoBodyCenterABC?share","0=09:00->19:00|1=09:00->19:00|2=09:00->19:00|3=09:00->19:00|4=09:00->19:00|6=09:00->19:00|","","","1","0",""
"1","Dubai Electronic Wheel","M-4, Mussafah - Abu Dhabi, Mussafah","Abu Dhabi","AE","","","customercare@tyresvision.com","","","","24.365727","54.518337","1","2021-06-08 10:42:40","2021-06-08 10:42:40","","","","","","https://goo.gl/maps/L5zBsFyPgfk5rJENA","0=09:00->19:00|1=09:00->19:00|2=09:00->19:00|3=09:00->19:00|4=09:00->19:00|6=09:00->19:00|","","","1","0",""
"1","Fast Fit - Emirates","Located in ADNOC Service Station, Al Ghubaibha Road, Next to Babyshop","Dubai","AE","","","customercare@tyresvision.com","","","","25.340133","55.410128","1","2021-06-08 10:46:59","2021-06-08 10:46:59","","","","","","https://goo.gl/maps/x8taqoSK7x75LFwe7","0=09:00->19:00|1=09:00->19:00|2=09:00->19:00|3=09:00->19:00|4=09:00->19:00|6=09:00->19:00|","","","1","0",""
"1","Fast Fit - Nakheel","Lcoated in After Al Qassimi Hospital, ADNOC Service Station","Dubai","AE","","","customercare@tyresvision.com","","","","25.344931","55.433062","1","2021-06-08 10:50:49","2021-06-08 10:50:49","","","","","","https://goo.gl/maps/FTp59biHRwKkLgjW6","0=09:00->19:00|1=09:00->19:00|2=09:00->19:00|3=09:00->19:00|4=09:00->19:00|6=09:00->19:00|","","","1","0",""
"1","FirstStop","Khalifa city, Khalifa City-A","Abu Dhabi","AE","","","customercare@tyresvision.com","","","","24.405935","54.603388","1","2021-06-08 10:55:14","2021-06-08 10:55:14","","","","","","https://goo.gl/maps/j2iXZYaAr7FvV4RS6","0=09:00->19:00|1=09:00->19:00|2=09:00->19:00|3=09:00->19:00|4=09:00->19:00|6=09:00->19:00|","","","1","0",""
"1","FirstStop","Mushrif Rabdan ADNOC Autoserve, ADNOC Fuel Station, near Al Nahda National School, Al Mushrif","Abu Dhabi","AE","","","customercare@tyresvision.com","","","","24.43693","54.401722","1","2021-06-08 10:59:09","2021-06-08 10:59:09","","","","","","https://goo.gl/maps/GFTYQZx2qS4QNKDX8","0=09:00->19:00|1=09:00->19:00|2=09:00->19:00|3=09:00->19:00|4=09:00->19:00|6=09:00->19:00|","","","1","0",""
"1","Goodyear Auto Care","8th St , Musaffah Ind Area -13, Mussafah","Abu Dhabi","AE","","","customercare@tyresvision.com","","","","24.374449","54.502043","1","2021-06-08 11:06:28","2021-06-08 11:06:28","","","","","","https://goo.gl/maps/noKv8rFQmQEbH2aN9","0=09:00->19:00|1=09:00->19:00|2=09:00->19:00|3=09:00->19:00|4=09:00->19:00|6=09:00->19:00|","","","1","0",""
"1","Liberty Tyre Center","Mushrif Br, Al Khaleej Ar Arabi Road, Al Mushrif","Dubai","AE","","","customercare@tyresvision.com","","","","24.4293936","54.3945538","1","2021-06-08 11:25:29","2021-06-08 11:25:29","","","","","","https://g.page/Libertytyrecenter?share","0=09:00->19:00|1=09:00->19:00|2=09:00->19:00|3=09:00->19:00|4=09:00->19:00|6=09:00->19:00|","","","1","0",""
"1","RT Tyres - AUH","Parking no 5, Basement parking , Khalidiya Mall , Khalidiya Mall","Abu Dhabi","AE","","","customercare@tyresvision.com","","","","24.470928","54.35118","1","2021-06-08 11:31:12","2021-06-08 11:31:12","","","","","","https://g.page/rt-tyres-abu-dabi?share","0=09:00->19:00|1=09:00->19:00|2=09:00->19:00|3=09:00->19:00|4=09:00->19:00|6=09:00->19:00|","","","1","0",""
"1","Saeedi Pro","Mussafah Industrial Area, Mussafah","Abu Dhabi","AE","","","customercare@tyresvision.com","","","","24.3446451","54.4977014","1","2021-06-08 11:39:13","2021-06-08 11:39:13","","","","","","https://g.page/saeedi-pro-abu-dhabi?share","0=09:00->19:00|1=09:00->19:00|2=09:00->19:00|3=09:00->19:00|4=09:00->19:00|6=09:00->19:00|","","","1","0",""
"1","SunGate Tyres","Sheikh Maktoum Bin Rashid Road, Baniyas (East)","Abu Dhabi","AE","","","customercare@tyresvision.com","","","","24.319901","54.6139","1","2021-06-08 11:54:17","2021-06-08 11:54:17","","","","","","https://goo.gl/maps/mqBqjw3qhC3E4FE87","0=09:00->19:00|1=09:00->19:00|2=09:00->19:00|3=09:00->19:00|4=09:00->19:00|6=09:00->19:00|","","","1","0",""
"1","SuperCarz","M-17, Mussafah Industrial Area , Mussafah","Abu Dhabi","AE","","","customercare@tyresvision.com","","","","24.364067","54.4914571","1","2021-06-08 11:58:46","2021-06-08 11:58:46","","","","","","https://g.page/zdegree-supercarz?share","0=09:00->19:00|1=09:00->19:00|2=09:00->19:00|3=09:00->19:00|4=09:00->19:00|6=09:00->19:00|","","","1","0",""
"1","Tas Tyres","ADNOC station #799","Sharjah","AE","","","customercare@tyresvision.com","","","","25.34094","55.417933","1","2021-06-08 12:17:29","2021-06-08 12:17:29","","","","","","https://goo.gl/maps/wPnbttDb8LiPENSg9","0=09:00->19:00|1=09:00->19:00|2=09:00->19:00|","","","1","0",""
"1","Tyre Rack Tyres","Near Emirates transport, M -5, Musaffah, Mussafah","Abu Dhabi","AE","","","customercare@tyresvision.com","","","","24.368267","54.512488","1","2021-06-08 12:23:16","2021-06-08 12:23:16","","","","","","https://goo.gl/maps/x8VfqzBnWyCfGXmT7","0=09:00->19:00|1=09:00->19:00|2=09:00->19:00|3=09:00->19:00|4=09:00->19:00|6=09:00->19:00|","","","1","0",""
"1","Yokohama TSC","Mussafah Ind 14 , 13th Street Abu Dhabi, Mussafah Industrial Area","Abu Dhabi","AE","","","customercare@tyresvision.com","","","","24.380182","54.499348","1","2021-06-08 12:38:40","2021-06-08 12:38:40","","","","","","https://goo.gl/maps/N8uQLjox6zoTQg5b9","0=09:00->19:00|1=09:00->19:00|2=09:00->19:00|3=09:00->19:00|4=09:00->19:00|6=09:00->19:00|","","","1","0",""
"1","Zeal Auto Tyres","Al Jurf Cemetery Round About Opposite AIMS Recycling Plant Near China Mall , Jurf,","Ajman","AE","","","customercare@tyresvision.com","","","","25.437387","55.527569","1","2021-06-08 12:41:42","2021-06-08 12:41:42","","","","","","https://g.page/zeal-auto-tyres-trading-llc?share","0=09:00->19:00|1=09:00->19:00|2=09:00->19:00|3=09:00->19:00|4=09:00->19:00|6=09:00->19:00|","","","1","0",""
"1","Ajmal Mukhtar Garage","Industrial Area 2, 7 Street 52, Ras Al Khor","Dubai","AE","","","customercare@tyresvision.com","","","","25.181841","55.35462","1","2021-06-23 13:01:18","2021-06-11 04:55:42","","","","","","https://goo.gl/maps/1aSx6W6vbCk7oKLL6","0=10:00->18:30|1=10:00->18:30|2=10:00->18:30|3=10:00->18:30|4=10:00->18:30|6=10:00->18:30|","","","1","0",""
"1","AAA Service Center","","Dubai","AE","","","customercare@tyresvision.com","","","","25.123718","55.209182","1","2021-06-23 12:14:20","2021-06-11 05:09:42","","","","","","https://goo.gl/maps/34BQbTS79yNSDKhb6","0=10:00->17:00|1=10:00->17:00|2=10:00->17:00|3=10:00->17:00|4=10:00->17:00|6=10:00->17:00|","","","1","0",""
