{"data":[{"slug":"acura","name":"Acura","name_en":"Acura","regions":["cdm","chdm","eudm","medm","mxndm","russia","usdm"],"logo":"https://cdn.wheel-size.com/automobile/manufacturer/acura-1622187471.8597765.png"},{"slug":"alfa-romeo","name":"Alfa Romeo","name_en":"Alfa Romeo","regions":["audm","cdm","chdm","eudm","jdm","ladm","medm","mxndm","nadm","russia","sadm","sam","usdm"],"logo":"https://cdn.wheel-size.com/automobile/manufacturer/alfa-romeo-1622187497.0561097.png"},{"slug":"aston-martin","name":"Aston Martin","name_en":"Aston Martin","regions":["audm","cdm","chdm","eudm","jdm","ladm","medm","mxndm","nadm","russia","sadm","sam","skdm","usdm"],"logo":"https://cdn.wheel-size.com/automobile/manufacturer/aston-martin-1622187548.7074096.png"},{"slug":"audi","name":"Audi","name_en":"Audi","regions":["audm","cdm","chdm","eudm","jdm","ladm","medm","mxndm","nadm","russia","sadm","sam","skdm","usdm"],"logo":"https://cdn.wheel-size.com/automobile/manufacturer/audi-1632743135.9018078.png"},{"slug":"baic","name":"BAIC","name_en":"BAIC","regions":["chdm","eudm","ladm","medm","mxndm","nadm","russia","sadm","sam"],"logo":"https://cdn.wheel-size.com/automobile/manufacturer/baic-1622187569.0411181.png"},{"slug":"bentley","name":"Bentley","name_en":"Bentley","regions":["audm","cdm","chdm","eudm","ladm","medm","mxndm","nadm","russia","sadm","sam","skdm","usdm"],"logo":"https://cdn.wheel-size.com/automobile/manufacturer/bentley-1622187696.6171503.png"},{"slug":"bmw","name":"BMW","name_en":"BMW","regions":["audm","cdm","chdm","eudm","jdm","ladm","medm","mxndm","nadm","russia","sadm","sam","skdm","usdm"],"logo":"https://cdn.wheel-size.com/automobile/manufacturer/bmw-1632742904.5706592.png"},{"slug":"bmw-alpina","name":"BMW Alpina","name_en":"BMW Alpina","regions":["audm","cdm","chdm","eudm","jdm","medm","russia","usdm"],"logo":"https://cdn.wheel-size.com/automobile/manufacturer/bmw-alpina-1622187718.9726026.png"},{"slug":"borgward","name":"Borgward","name_en":"Borgward","regions":["chdm","eudm","medm"],"logo":"https://cdn.wheel-size.com/automobile/manufacturer/borgward-1622187806.0145419.png"},{"slug":"brilliance","name":"Brilliance","name_en":"Brilliance","regions":["chdm","eudm","ladm","medm","nadm","russia","sam"],"logo":"https://cdn.wheel-size.com/automobile/manufacturer/brilliance-1622187813.378159.png"},{"slug":"bugatti","name":"Bugatti","name_en":"Bugatti","regions":["cdm","chdm","eudm","jdm","medm","usdm"],"logo":"https://cdn.wheel-size.com/automobile/manufacturer/bugatti-1622187836.8095803.png"},{"slug":"byd","name":"BYD","name_en":"BYD","regions":["audm","chdm","eudm","ladm","medm","nadm","russia","sam","skdm"],"logo":"https://cdn.wheel-size.com/automobile/manufacturer/byd-1622188366.9093466.png"},{"slug":"cadillac","name":"Cadillac","name_en":"Cadillac","regions":["cdm","chdm","eudm","medm","mxndm","russia","usdm"],"logo":"https://cdn.wheel-size.com/automobile/manufacturer/cadillac-1622187853.7133439.png"},{"slug":"changan","name":"Changan","name_en":"Changan","regions":["chdm","ladm","medm","nadm","russia","sam"],"logo":"https://cdn.wheel-size.com/automobile/manufacturer/changan-1622187860.82198.png"},{"slug":"chery","name":"Chery","name_en":"Chery","regions":["audm","chdm","eudm","ladm","medm","nadm","russia","sadm","sam"],"logo":"https://cdn.wheel-size.com/automobile/manufacturer/chery-1622187875.123182.png"},{"slug":"chevrolet","name":"Chevrolet","name_en":"Chevrolet","regions":["cdm","chdm","eudm","jdm","ladm","medm","mxndm","nadm","russia","sadm","sam","skdm","usdm"],"logo":"https://cdn.wheel-size.com/automobile/manufacturer/chevrolet-1622187909.3255498.png"},{"slug":"chrysler","name":"Chrysler","name_en":"Chrysler","regions":["cdm","eudm","medm","mxndm","russia","usdm"],"logo":"https://cdn.wheel-size.com/automobile/manufacturer/chrysler-1622187918.8890374.png"},{"slug":"citroen","name":"Citroën","name_en":"Citroën","regions":["audm","chdm","eudm","jdm","ladm","medm","russia","sadm","sam"],"logo":"https://cdn.wheel-size.com/automobile/manufacturer/citroen-1698158436.5804582.png"},{"slug":"cupra","name":"Cupra","name_en":"Cupra","regions":["audm","eudm","medm","mxndm","sam"],"logo":"https://cdn.wheel-size.com/automobile/manufacturer/cupra-1622188035.655218.png"},{"slug":"daihatsu","name":"Daihatsu","name_en":"Daihatsu","regions":["audm","cdm","eudm","jdm","ladm","medm","sam","usdm"],"logo":"https://cdn.wheel-size.com/automobile/manufacturer/daihatsu-1622188066.036895.png"},{"slug":"dodge","name":"Dodge","name_en":"Dodge","regions":["cdm","chdm","eudm","jdm","ladm","medm","mxndm","russia","sam","usdm"],"logo":"https://cdn.wheel-size.com/automobile/manufacturer/dodge-1663218424.6866808.png"},{"slug":"dongfeng","name":"Dongfeng","name_en":"Dongfeng","regions":["chdm","eudm","medm","russia","sam"],"logo":"https://cdn.wheel-size.com/automobile/manufacturer/dongfeng-1622188104.2587373.png"},{"slug":"dorcen","name":"Dorcen","name_en":"Dorcen","regions":["chdm","medm"],"logo":"https://cdn.wheel-size.com/automobile/manufacturer/dorcen-1698155215.3159215.png"},{"slug":"ds","name":"DS","name_en":"DS","regions":["chdm","eudm","jdm","ladm","medm","nadm","russia","sam","skdm"],"logo":"https://cdn.wheel-size.com/automobile/manufacturer/ds-1622188121.3844934.png"},{"slug":"exeed","name":"Exeed","name_en":"Exeed","regions":["chdm","ladm","medm","russia"],"logo":"https://cdn.wheel-size.com/automobile/manufacturer/exeed-1622188307.4593158.png"},{"slug":"faw","name":"FAW","name_en":"FAW","regions":["chdm","eudm","medm","russia"],"logo":"https://cdn.wheel-size.com/automobile/manufacturer/faw-1622188327.5026684.png"},{"slug":"ferrari","name":"Ferrari","name_en":"Ferrari","regions":["audm","cdm","chdm","eudm","jdm","ladm","medm","mxndm","nadm","russia","sadm","sam","skdm","usdm"],"logo":"https://cdn.wheel-size.com/automobile/manufacturer/ferrari-1622188446.4694815.png"},{"slug":"fiat","name":"Fiat","name_en":"Fiat","regions":["audm","cdm","chdm","eudm","jdm","ladm","medm","mxndm","nadm","russia","sadm","sam","usdm"],"logo":"https://cdn.wheel-size.com/automobile/manufacturer/fiat-1698158266.346683.png"},{"slug":"fisker","name":"Fisker","name_en":"Fisker","regions":["eudm","medm","usdm"],"logo":"https://cdn.wheel-size.com/automobile/manufacturer/fisker-1622188588.6863039.png"},{"slug":"ford","name":"Ford","name_en":"Ford","regions":["audm","cdm","chdm","eudm","jdm","ladm","medm","mxndm","nadm","russia","sadm","sam","usdm"],"logo":"https://cdn.wheel-size.com/automobile/manufacturer/ford-1622188633.2006207.png"},{"slug":"foton","name":"Foton","name_en":"Foton","regions":["audm","chdm","medm","russia","sam"],"logo":"https://cdn.wheel-size.com/automobile/manufacturer/foton-1622188650.8366506.png"},{"slug":"gac","name":"GAC","name_en":"GAC","regions":["chdm","ladm","medm","russia","sam"],"logo":"https://cdn.wheel-size.com/automobile/manufacturer/gac-1663217552.1997182.png"},{"slug":"geely","name":"Geely","name_en":"Geely","regions":["chdm","eudm","ladm","medm","nadm","russia","sadm","sam"],"logo":"https://cdn.wheel-size.com/automobile/manufacturer/geely-1622188745.4011102.png"},{"slug":"genesis","name":"Genesis","name_en":"Genesis","regions":["audm","cdm","eudm","medm","russia","skdm","usdm"],"logo":"https://cdn.wheel-size.com/automobile/manufacturer/genesis-1622188756.2003286.png"},{"slug":"geometry","name":"Geometry","name_en":"Geometry","regions":["chdm","eudm","ladm","medm","nadm","russia"],"logo":"https://cdn.wheel-size.com/automobile/manufacturer/geometry-1663181067.9719439.png"},{"slug":"gmc","name":"GMC","name_en":"GMC","regions":["cdm","medm","mxndm","sam","usdm"],"logo":"https://cdn.wheel-size.com/automobile/manufacturer/gmc-1663218719.169733.png"},{"slug":"great-wall","name":"Great Wall (GWM)","name_en":"Great Wall (GWM)","regions":["audm","chdm","eudm","ladm","medm","russia","sadm","sam"],"logo":"https://cdn.wheel-size.com/automobile/manufacturer/great-wall-1622195923.3004434.png"},{"slug":"haval","name":"Haval","name_en":"Haval","regions":["audm","chdm","eudm","medm","russia","sadm","sam"],"logo":"https://cdn.wheel-size.com/automobile/manufacturer/haval-1622195944.8729687.png"},{"slug":"honda","name":"Honda","name_en":"Honda","regions":["audm","cdm","chdm","eudm","jdm","ladm","medm","mxndm","nadm","russia","sadm","sam","skdm","usdm"],"logo":"https://cdn.wheel-size.com/automobile/manufacturer/honda-1622195990.98031.png"},{"slug":"hummer","name":"Hummer","name_en":"Hummer","regions":["cdm","eudm","medm","mxndm","russia","usdm"],"logo":"https://cdn.wheel-size.com/automobile/manufacturer/hummer-1622196040.9744117.png"},{"slug":"hyundai","name":"Hyundai","name_en":"Hyundai","regions":["audm","cdm","chdm","eudm","jdm","ladm","medm","mxndm","nadm","russia","sadm","sam","skdm","usdm"],"logo":"https://cdn.wheel-size.com/automobile/manufacturer/hyundai-1622196052.2252924.png"},{"slug":"ineos","name":"Ineos","name_en":"Ineos","regions":["audm","cdm","eudm","medm","mxndm","nadm","sadm","usdm"],"logo":"https://cdn.wheel-size.com/automobile/manufacturer/ineos-1698155334.1132197.png"},{"slug":"infiniti","name":"Infiniti","name_en":"Infiniti","regions":["cdm","chdm","eudm","ladm","medm","mxndm","russia","sam","usdm"],"logo":"https://cdn.wheel-size.com/automobile/manufacturer/infiniti-1622196684.0447907.png"},{"slug":"iran-khodro","name":"Iran Khodro","name_en":"Iran Khodro","regions":["eudm","medm","russia","sam"],"logo":"https://cdn.wheel-size.com/automobile/manufacturer/iran-khodro-1698155345.14644.png"},{"slug":"isuzu","name":"Isuzu","name_en":"Isuzu","regions":["audm","cdm","chdm","eudm","jdm","ladm","medm","mxndm","russia","sadm","sam","skdm","usdm"],"logo":"https://cdn.wheel-size.com/automobile/manufacturer/isuzu-1622196799.599329.png"},{"slug":"jac","name":"JAC","name_en":"JAC","regions":["chdm","eudm","ladm","medm","mxndm","russia","sadm","sam"],"logo":"https://cdn.wheel-size.com/automobile/manufacturer/jac-1622196857.5347533.png"},{"slug":"jaguar","name":"Jaguar","name_en":"Jaguar","regions":["audm","cdm","chdm","eudm","jdm","ladm","medm","mxndm","nadm","russia","sadm","sam","skdm","usdm"],"logo":"https://cdn.wheel-size.com/automobile/manufacturer/jaguar-1622196873.7070992.png"},{"slug":"jeep","name":"Jeep","name_en":"Jeep","regions":["audm","cdm","chdm","eudm","jdm","ladm","medm","mxndm","nadm","russia","sadm","sam","skdm","usdm"],"logo":"https://cdn.wheel-size.com/automobile/manufacturer/jeep-1622196898.1454594.png"},{"slug":"jetour","name":"Jetour","name_en":"Jetour","regions":["chdm","eudm","ladm","medm","mxndm","russia","sadm","sam"],"logo":"https://cdn.wheel-size.com/automobile/manufacturer/jetour-1632734275.7699246.png"},{"slug":"kia","name":"Kia","name_en":"Kia","regions":["audm","cdm","chdm","eudm","ladm","medm","mxndm","nadm","russia","sadm","sam","skdm","usdm"],"logo":"https://cdn.wheel-size.com/automobile/manufacturer/kia-1649661517.5593028.png"},{"slug":"lamborghini","name":"Lamborghini","name_en":"Lamborghini","regions":["audm","cdm","chdm","eudm","jdm","ladm","medm","mxndm","nadm","russia","sadm","sam","skdm","usdm"],"logo":"https://cdn.wheel-size.com/automobile/manufacturer/lamborghini-1622197030.3850188.png"},{"slug":"land-rover","name":"Land Rover","name_en":"Land Rover","regions":["audm","cdm","chdm","eudm","jdm","ladm","medm","mxndm","nadm","russia","sadm","sam","skdm","usdm"],"logo":"https://cdn.wheel-size.com/automobile/manufacturer/land-rover-1622197056.750649.png"},{"slug":"lexus","name":"Lexus","name_en":"Lexus","regions":["audm","cdm","chdm","eudm","jdm","ladm","medm","mxndm","nadm","russia","sadm","sam","skdm","usdm"],"logo":"https://cdn.wheel-size.com/automobile/manufacturer/lexus-1622197096.94669.png"},{"slug":"lincoln","name":"Lincoln","name_en":"Lincoln","regions":["cdm","chdm","eudm","medm","mxndm","usdm"],"logo":"https://cdn.wheel-size.com/automobile/manufacturer/lincoln-1622197117.5432029.png"},{"slug":"lotus","name":"Lotus","name_en":"Lotus","regions":["eudm","medm","russia","usdm"],"logo":"https://cdn.wheel-size.com/automobile/manufacturer/lotus-1698156541.2480235.png"},{"slug":"lucid","name":"Lucid","name_en":"Lucid","regions":["cdm","eudm","medm","usdm"],"logo":"https://cdn.wheel-size.com/automobile/manufacturer/lucid-1698155484.7167468.png"},{"slug":"luxgen","name":"Luxgen","name_en":"Luxgen","regions":["medm","russia","sam"],"logo":"https://cdn.wheel-size.com/automobile/manufacturer/luxgen-1622277007.193432.png"},{"slug":"mahindra","name":"Mahindra","name_en":"Mahindra","regions":["audm","cdm","eudm","ladm","medm","sadm","sam","usdm"],"logo":"https://cdn.wheel-size.com/automobile/manufacturer/mahindra-1622277055.063834.png"},{"slug":"maserati","name":"Maserati","name_en":"Maserati","regions":["audm","cdm","chdm","eudm","jdm","ladm","medm","mxndm","nadm","russia","sadm","sam","skdm","usdm"],"logo":"https://cdn.wheel-size.com/automobile/manufacturer/maserati-1622277092.2098749.png"},{"slug":"maxus","name":"Maxus","name_en":"Maxus","regions":["chdm","eudm","ladm","medm","sadm","sam"],"logo":"https://cdn.wheel-size.com/automobile/manufacturer/maxus-1622277109.863274.png"},{"slug":"maybach","name":"Maybach","name_en":"Maybach","regions":["eudm","medm","russia"],"logo":"https://cdn.wheel-size.com/automobile/manufacturer/maybach-1622277125.8256702.png"},{"slug":"mazda","name":"Mazda","name_en":"Mazda","regions":["audm","cdm","chdm","eudm","jdm","ladm","medm","mxndm","russia","sadm","sam","usdm"],"logo":"https://cdn.wheel-size.com/automobile/manufacturer/mazda-1622277136.7289732.png"},{"slug":"mclaren","name":"McLaren","name_en":"McLaren","regions":["audm","cdm","chdm","eudm","jdm","ladm","medm","mxndm","sadm","sam","usdm"],"logo":"https://cdn.wheel-size.com/automobile/manufacturer/mclaren-1622277150.9167163.png"},{"slug":"mercedes","name":"Mercedes-Benz","name_en":"Mercedes-Benz","regions":["audm","cdm","chdm","eudm","jdm","ladm","medm","mxndm","nadm","russia","sadm","sam","skdm","usdm"],"logo":"https://cdn.wheel-size.com/automobile/manufacturer/mercedes-1622277161.2897472.png"},{"slug":"mercedes-maybach","name":"Mercedes-Maybach","name_en":"Mercedes-Maybach","regions":["audm","cdm","chdm","eudm","jdm","medm","mxndm","nadm","russia","sadm","sam","skdm","usdm"],"logo":"https://cdn.wheel-size.com/automobile/manufacturer/mercedes-maybach-1622277202.2358077.png"},{"slug":"mercury","name":"Mercury","name_en":"Mercury","regions":["cdm","medm","mxndm","usdm"],"logo":"https://cdn.wheel-size.com/automobile/manufacturer/mercury-1622277232.5964475.png"},{"slug":"mg","name":"MG","name_en":"MG","regions":["audm","chdm","eudm","ladm","medm","mxndm","russia","sam"],"logo":"https://cdn.wheel-size.com/automobile/manufacturer/mg-1622277249.83136.png"},{"slug":"mini","name":"MINI","name_en":"MINI","regions":["audm","cdm","chdm","eudm","jdm","ladm","medm","mxndm","nadm","russia","sadm","sam","skdm","usdm"],"logo":"https://cdn.wheel-size.com/automobile/manufacturer/mini-1632743189.200076.png"},{"slug":"mitsubishi","name":"Mitsubishi","name_en":"Mitsubishi","regions":["audm","cdm","chdm","eudm","jdm","ladm","medm","mxndm","nadm","russia","sadm","sam","skdm","usdm"],"logo":"https://cdn.wheel-size.com/automobile/manufacturer/mitsubishi-1622277272.6303375.png"},{"slug":"nissan","name":"Nissan","name_en":"Nissan","regions":["audm","cdm","chdm","eudm","jdm","ladm","medm","mxndm","nadm","russia","sadm","sam","usdm"],"logo":"https://cdn.wheel-size.com/automobile/manufacturer/nissan-1632742769.6952765.png"},{"slug":"opel","name":"Opel","name_en":"Opel","regions":["eudm","jdm","medm","russia","sadm","usdm"],"logo":"https://cdn.wheel-size.com/automobile/manufacturer/opel-1622277370.747172.png"},{"slug":"ora","name":"Ora","name_en":"Ora","regions":["chdm","eudm","medm","sam"],"logo":"https://cdn.wheel-size.com/automobile/manufacturer/ora-1663181942.2019138.png"},{"slug":"peugeot","name":"Peugeot","name_en":"Peugeot","regions":["audm","chdm","eudm","jdm","ladm","medm","mxndm","nadm","russia","sadm","sam","skdm"],"logo":"https://cdn.wheel-size.com/automobile/manufacturer/peugeot-1622277408.5159574.png"},{"slug":"polestar","name":"Polestar","name_en":"Polestar","regions":["audm","cdm","chdm","eudm","medm","sam","skdm","usdm"],"logo":"https://cdn.wheel-size.com/automobile/manufacturer/polestar-1622279754.559016.png"},{"slug":"porsche","name":"Porsche","name_en":"Porsche","regions":["audm","cdm","chdm","eudm","jdm","ladm","medm","mxndm","nadm","russia","sadm","sam","skdm","usdm"],"logo":"https://cdn.wheel-size.com/automobile/manufacturer/porsche-1622277491.5094388.png"},{"slug":"proton","name":"Proton","name_en":"Proton","regions":["audm","eudm","ladm","medm","nadm","sadm","sam"],"logo":"https://cdn.wheel-size.com/automobile/manufacturer/proton-1622277503.619904.png"},{"slug":"ram","name":"Ram","name_en":"Ram","regions":["audm","cdm","ladm","medm","mxndm","sam","usdm"],"logo":"https://cdn.wheel-size.com/automobile/manufacturer/ram-1622277547.281054.png"},{"slug":"red-flag","name":"Hongqi","name_en":"Hongqi","regions":["chdm","eudm","medm","sam"],"logo":"https://cdn.wheel-size.com/automobile/manufacturer/red-flag-1622277586.8778138.png"},{"slug":"renault","name":"Renault","name_en":"Renault","regions":["audm","chdm","eudm","jdm","ladm","medm","mxndm","nadm","russia","sadm","sam","skdm"],"logo":"https://cdn.wheel-size.com/automobile/manufacturer/renault-1632742415.1332035.png"},{"slug":"rolls-royce","name":"Rolls-Royce","name_en":"Rolls-Royce","regions":["cdm","eudm","medm","russia","usdm"],"logo":"https://cdn.wheel-size.com/automobile/manufacturer/rolls-royce-1622277659.989281.png"},{"slug":"saab","name":"Saab","name_en":"Saab","regions":["cdm","eudm","medm","mxndm","russia","usdm"],"logo":"https://cdn.wheel-size.com/automobile/manufacturer/saab-1622277737.168092.png"},{"slug":"seat","name":"Seat","name_en":"Seat","regions":["audm","eudm","ladm","medm","mxndm","nadm","russia","sam"],"logo":"https://cdn.wheel-size.com/automobile/manufacturer/seat-1622277776.311287.png"},{"slug":"seres","name":"Seres","name_en":"Seres","regions":["chdm","eudm","medm","usdm"],"logo":"https://cdn.wheel-size.com/automobile/manufacturer/seres-1622280005.3238325.png"},{"slug":"skoda","name":"Skoda","name_en":"Skoda","regions":["audm","chdm","eudm","ladm","medm","nadm","russia","sam"],"logo":"https://cdn.wheel-size.com/automobile/manufacturer/skoda-1622277801.922566.png"},{"slug":"soueast","name":"Soueast","name_en":"Soueast","regions":["chdm","medm","sam"],"logo":"https://cdn.wheel-size.com/automobile/manufacturer/soueast-1622277827.6586995.png"},{"slug":"ssangyong","name":"SsangYong","name_en":"SsangYong","regions":["audm","chdm","eudm","ladm","medm","nadm","russia","sam","skdm"],"logo":"https://cdn.wheel-size.com/automobile/manufacturer/ssangyong-1622277892.3065999.png"},{"slug":"subaru","name":"Subaru","name_en":"Subaru","regions":["audm","cdm","chdm","eudm","jdm","ladm","medm","mxndm","nadm","russia","sadm","sam","usdm"],"logo":"https://cdn.wheel-size.com/automobile/manufacturer/subaru-1622277902.5535758.png"},{"slug":"suzuki","name":"Suzuki","name_en":"Suzuki","regions":["audm","cdm","chdm","eudm","jdm","ladm","medm","mxndm","nadm","russia","sadm","sam","usdm"],"logo":"https://cdn.wheel-size.com/automobile/manufacturer/suzuki-1622277914.6690109.png"},{"slug":"tata","name":"Tata","name_en":"Tata","regions":["eudm","ladm","medm","nadm","sadm","sam"],"logo":"https://cdn.wheel-size.com/automobile/manufacturer/tata-1622277946.568997.png"},{"slug":"tesla","name":"Tesla","name_en":"Tesla","regions":["audm","cdm","chdm","eudm","jdm","medm","mxndm","sam","skdm","usdm"],"logo":"https://cdn.wheel-size.com/automobile/manufacturer/tesla-1622277957.4683545.png"},{"slug":"toyota","name":"Toyota","name_en":"Toyota","regions":["audm","cdm","chdm","eudm","jdm","ladm","medm","mxndm","nadm","russia","sadm","sam","skdm","usdm"],"logo":"https://cdn.wheel-size.com/automobile/manufacturer/toyota-1632743807.0095704.png"},{"slug":"volkswagen","name":"Volkswagen","name_en":"Volkswagen","regions":["audm","cdm","chdm","eudm","jdm","ladm","medm","mxndm","russia","sadm","sam","usdm"],"logo":"https://cdn.wheel-size.com/automobile/manufacturer/volkswagen-1632743087.163763.png"},{"slug":"volvo","name":"Volvo","name_en":"Volvo","regions":["audm","cdm","chdm","eudm","jdm","ladm","medm","mxndm","nadm","russia","sadm","sam","skdm","usdm"],"logo":"https://cdn.wheel-size.com/automobile/manufacturer/volvo-1622278060.3758042.png"},{"slug":"zotye","name":"Zotye","name_en":"Zotye","regions":["chdm","medm","nadm","russia"],"logo":"https://cdn.wheel-size.com/automobile/manufacturer/zotye-1622278154.9476206.png"}],"meta":{"count":94}}